CCSDS_OMM_VERS = 2.0
CREATION_DATE  = 
ORIGINATOR     = 

OBJECT_NAME    = STARLINK-35825
OBJECT_ID      = 2025-268L
CENTER_NAME    = EARTH
REF_FRAME      = TEME
TIME_SYSTEM    = UTC
MEAN_ELEMENT_THEORY = SGP/SGP4

EPOCH          = 2025-12-09T14:00:01.999872
MEAN_MOTION    = 15.50592860
ECCENTRICITY   = .00019182
INCLINATION    = 43.0004
RA_OF_ASC_NODE = 139.6117
ARG_OF_PERICENTER = 267.9647
MEAN_ANOMALY   = 209.6105

EPHEMERIS_TYPE = 0
CLASSIFICATION_TYPE = U
NORAD_CAT_ID   = 66567
ELEMENT_SET_NO = 999
REV_AT_EPOCH   = 416
BSTAR          = -.13679127E-2
MEAN_MOTION_DOT = -.7982E-3
MEAN_MOTION_DDOT = 0

CCSDS_OMM_VERS = 2.0
CREATION_DATE  = 
ORIGINATOR     = 

OBJECT_NAME    = STARLINK-35803
OBJECT_ID      = 2025-268M
CENTER_NAME    = EARTH
REF_FRAME      = TEME
TIME_SYSTEM    = UTC
MEAN_ELEMENT_THEORY = SGP/SGP4

EPOCH          = 2025-12-09T14:00:01.999872
MEAN_MOTION    = 15.50597625
ECCENTRICITY   = .00018087
INCLINATION    = 43.0005
RA_OF_ASC_NODE = 139.6066
ARG_OF_PERICENTER = 266.1467
MEAN_ANOMALY   = 213.3430

EPHEMERIS_TYPE = 0
CLASSIFICATION_TYPE = U
NORAD_CAT_ID   = 66568
ELEMENT_SET_NO = 999
REV_AT_EPOCH   = 416
BSTAR          = -.14917978E-2
MEAN_MOTION_DOT = -.86954E-3
MEAN_MOTION_DDOT = 0

CCSDS_OMM_VERS = 2.0
CREATION_DATE  = 
ORIGINATOR     = 

OBJECT_NAME    = STARLINK-35835
OBJECT_ID      = 2025-268N
CENTER_NAME    = EARTH
REF_FRAME      = TEME
TIME_SYSTEM    = UTC
MEAN_ELEMENT_THEORY = SGP/SGP4

EPOCH          = 2025-12-09T14:00:01.999872
MEAN_MOTION    = 15.50598218
ECCENTRICITY   = .00019264
INCLINATION    = 43.0004
RA_OF_ASC_NODE = 139.6024
ARG_OF_PERICENTER = 267.2648
MEAN_ANOMALY   = 214.1437

EPHEMERIS_TYPE = 0
CLASSIFICATION_TYPE = U
NORAD_CAT_ID   = 66569
ELEMENT_SET_NO = 999
REV_AT_EPOCH   = 416
BSTAR          = -.15579319E-2
MEAN_MOTION_DOT = -.90753E-3
MEAN_MOTION_DDOT = 0

CCSDS_OMM_VERS = 2.0
CREATION_DATE  = 
ORIGINATOR     = 

OBJECT_NAME    = STARLINK-35834
OBJECT_ID      = 2025-268P
CENTER_NAME    = EARTH
REF_FRAME      = TEME
TIME_SYSTEM    = UTC
MEAN_ELEMENT_THEORY = SGP/SGP4

EPOCH          = 2025-12-09T14:00:01.999872
MEAN_MOTION    = 15.50590416
ECCENTRICITY   = .00015713
INCLINATION    = 43.0006
RA_OF_ASC_NODE = 139.5965
ARG_OF_PERICENTER = 271.2831
MEAN_ANOMALY   = 212.0415

EPHEMERIS_TYPE = 0
CLASSIFICATION_TYPE = U
NORAD_CAT_ID   = 66570
ELEMENT_SET_NO = 999
REV_AT_EPOCH   = 416
BSTAR          = -.11966537E-2
MEAN_MOTION_DOT = -.69949E-3
MEAN_MOTION_DDOT = 0

CCSDS_OMM_VERS = 2.0
CREATION_DATE  = 
ORIGINATOR     = 

OBJECT_NAME    = STARLINK-35836
OBJECT_ID      = 2025-268Q
CENTER_NAME    = EARTH
REF_FRAME      = TEME
TIME_SYSTEM    = UTC
MEAN_ELEMENT_THEORY = SGP/SGP4

EPOCH          = 2025-12-09T14:00:01.999872
MEAN_MOTION    = 15.50593006
ECCENTRICITY   = .00017772
INCLINATION    = 43.0006
RA_OF_ASC_NODE = 139.5918
ARG_OF_PERICENTER = 270.8208
MEAN_ANOMALY   = 214.4205

EPHEMERIS_TYPE = 0
CLASSIFICATION_TYPE = U
NORAD_CAT_ID   = 66571
ELEMENT_SET_NO = 999
REV_AT_EPOCH   = 416
BSTAR          = -.12900145E-2
MEAN_MOTION_DOT = -.75336E-3
MEAN_MOTION_DDOT = 0

CCSDS_OMM_VERS = 2.0
CREATION_DATE  = 
ORIGINATOR     = 

OBJECT_NAME    = STARLINK-35870
OBJECT_ID      = 2025-268R
CENTER_NAME    = EARTH
REF_FRAME      = TEME
TIME_SYSTEM    = UTC
MEAN_ELEMENT_THEORY = SGP/SGP4

EPOCH          = 2025-12-09T14:00:01.999872
MEAN_MOTION    = 15.50597311
ECCENTRICITY   = .00017675
INCLINATION    = 43.0006
RA_OF_ASC_NODE = 139.5883
ARG_OF_PERICENTER = 273.6575
MEAN_ANOMALY   = 213.5011

EPHEMERIS_TYPE = 0
CLASSIFICATION_TYPE = U
NORAD_CAT_ID   = 66572
ELEMENT_SET_NO = 999
REV_AT_EPOCH   = 416
BSTAR          = -.14354354E-2
MEAN_MOTION_DOT = -.83714E-3
MEAN_MOTION_DDOT = 0

CCSDS_OMM_VERS = 2.0
CREATION_DATE  = 
ORIGINATOR     = 

OBJECT_NAME    = STARLINK-35650
OBJECT_ID      = 2025-268S
CENTER_NAME    = EARTH
REF_FRAME      = TEME
TIME_SYSTEM    = UTC
MEAN_ELEMENT_THEORY = SGP/SGP4

EPOCH          = 2025-12-09T14:00:01.999872
MEAN_MOTION    = 15.50546826
ECCENTRICITY   = .00023629
INCLINATION    = 43.0003
RA_OF_ASC_NODE = 139.5819
ARG_OF_PERICENTER = 283.3158
MEAN_ANOMALY   = 205.7926

EPHEMERIS_TYPE = 0
CLASSIFICATION_TYPE = U
NORAD_CAT_ID   = 66573
ELEMENT_SET_NO = 999
REV_AT_EPOCH   = 416
BSTAR          = -.16167882E-3
MEAN_MOTION_DOT = -.9805E-4
MEAN_MOTION_DDOT = 0

CCSDS_OMM_VERS = 2.0
CREATION_DATE  = 
ORIGINATOR     = 

OBJECT_NAME    = STARLINK-35812
OBJECT_ID      = 2025-268T
CENTER_NAME    = EARTH
REF_FRAME      = TEME
TIME_SYSTEM    = UTC
MEAN_ELEMENT_THEORY = SGP/SGP4

EPOCH          = 2025-12-09T14:00:01.999872
MEAN_MOTION    = 15.50559660
ECCENTRICITY   = .00020885
INCLINATION    = 43.0006
RA_OF_ASC_NODE = 139.5771
ARG_OF_PERICENTER = 266.0838
MEAN_ANOMALY   = 224.9116

EPHEMERIS_TYPE = 0
CLASSIFICATION_TYPE = U
NORAD_CAT_ID   = 66574
ELEMENT_SET_NO = 999
REV_AT_EPOCH   = 416
BSTAR          = .53110977E-4
MEAN_MOTION_DOT = .2773E-4
MEAN_MOTION_DDOT = 0

CCSDS_OMM_VERS = 2.0
CREATION_DATE  = 
ORIGINATOR     = 

OBJECT_NAME    = STARLINK-35810
OBJECT_ID      = 2025-268U
CENTER_NAME    = EARTH
REF_FRAME      = TEME
TIME_SYSTEM    = UTC
MEAN_ELEMENT_THEORY = SGP/SGP4

EPOCH          = 2025-12-09T14:00:01.999872
MEAN_MOTION    = 15.50563950
ECCENTRICITY   = .00020204
INCLINATION    = 43.0005
RA_OF_ASC_NODE = 139.5725
ARG_OF_PERICENTER = 268.5637
MEAN_ANOMALY   = 224.3469

EPHEMERIS_TYPE = 0
CLASSIFICATION_TYPE = U
NORAD_CAT_ID   = 66575
ELEMENT_SET_NO = 999
REV_AT_EPOCH   = 416
BSTAR          = -.83394831E-4
MEAN_MOTION_DOT = -.5229E-4
MEAN_MOTION_DDOT = 0

CCSDS_OMM_VERS = 2.0
CREATION_DATE  = 
ORIGINATOR     = 

OBJECT_NAME    = STARLINK-35814
OBJECT_ID      = 2025-268V
CENTER_NAME    = EARTH
REF_FRAME      = TEME
TIME_SYSTEM    = UTC
MEAN_ELEMENT_THEORY = SGP/SGP4

EPOCH          = 2025-12-09T14:00:01.999872
MEAN_MOTION    = 15.50588071
ECCENTRICITY   = .00019883
INCLINATION    = 43.0006
RA_OF_ASC_NODE = 139.5680
ARG_OF_PERICENTER = 265.5517
MEAN_ANOMALY   = 229.2746

EPHEMERIS_TYPE = 0
CLASSIFICATION_TYPE = U
NORAD_CAT_ID   = 66576
ELEMENT_SET_NO = 999
REV_AT_EPOCH   = 416
BSTAR          = -.1118318E-2
MEAN_MOTION_DOT = -.65427E-3
MEAN_MOTION_DDOT = 0

CCSDS_OMM_VERS = 2.0
CREATION_DATE  = 
ORIGINATOR     = 

OBJECT_NAME    = STARLINK-35815
OBJECT_ID      = 2025-268W
CENTER_NAME    = EARTH
REF_FRAME      = TEME
TIME_SYSTEM    = UTC
MEAN_ELEMENT_THEORY = SGP/SGP4

EPOCH          = 2025-12-09T14:00:01.999872
MEAN_MOTION    = 15.50634582
ECCENTRICITY   = .00019029
INCLINATION    = 43.0006
RA_OF_ASC_NODE = 139.5629
ARG_OF_PERICENTER = 267.7625
MEAN_ANOMALY   = 228.9617

EPHEMERIS_TYPE = 0
CLASSIFICATION_TYPE = U
NORAD_CAT_ID   = 66577
ELEMENT_SET_NO = 999
REV_AT_EPOCH   = 416
BSTAR          = -.23514315E-2
MEAN_MOTION_DOT = -.136193E-2
MEAN_MOTION_DDOT = 0

CCSDS_OMM_VERS = 2.0
CREATION_DATE  = 
ORIGINATOR     = 

OBJECT_NAME    = STARLINK-35743
OBJECT_ID      = 2025-268X
CENTER_NAME    = EARTH
REF_FRAME      = TEME
TIME_SYSTEM    = UTC
MEAN_ELEMENT_THEORY = SGP/SGP4

EPOCH          = 2025-12-09T14:00:01.999872
MEAN_MOTION    = 15.50634502
ECCENTRICITY   = .00018973
INCLINATION    = 43.0007
RA_OF_ASC_NODE = 139.5579
ARG_OF_PERICENTER = 270.3580
MEAN_ANOMALY   = 228.2835

EPHEMERIS_TYPE = 0
CLASSIFICATION_TYPE = U
NORAD_CAT_ID   = 66578
ELEMENT_SET_NO = 999
REV_AT_EPOCH   = 416
BSTAR          = -.23482361E-2
MEAN_MOTION_DOT = -.136011E-2
MEAN_MOTION_DDOT = 0

