STARLINK-35825          
1 66567U 25268L   25343.58335648 -.00079820  00000+0 -13679-2 0  9997
2 66567  43.0004 139.6117 0001918 267.9647 209.6105 15.50592860  4166
STARLINK-35803          
1 66568U 25268M   25343.58335648 -.00086954  00000+0 -14918-2 0  9991
2 66568  43.0005 139.6066 0001808 266.1467 213.3430 15.50597625  4167
STARLINK-35835          
1 66569U 25268N   25343.58335648 -.00090753  00000+0 -15579-2 0  9998
2 66569  43.0004 139.6024 0001926 267.2648 214.1437 15.50598218  4160
STARLINK-35834          
1 66570U 25268P   25343.58335648 -.00069949  00000+0 -11967-2 0  9990
2 66570  43.0006 139.5965 0001571 271.2831 212.0415 15.50590416  4167
STARLINK-35836          
1 66571U 25268Q   25343.58335648 -.00075336  00000+0 -12900-2 0  9996
2 66571  43.0006 139.5918 0001777 270.8208 214.4205 15.50593006  4168
STARLINK-35870          
1 66572U 25268R   25343.58335648 -.00083714  00000+0 -14354-2 0  9991
2 66572  43.0006 139.5883 0001767 273.6575 213.5011 15.50597311  4165
STARLINK-35650          
1 66573U 25268S   25343.58335648 -.00009805  00000+0 -16168-3 0  9997
2 66573  43.0003 139.5819 0002362 283.3158 205.7926 15.50546826  4162
STARLINK-35812          
1 66574U 25268T   25343.58335648  .00002773  00000+0  53111-4 0  9993
2 66574  43.0006 139.5771 0002088 266.0838 224.9116 15.50559660  4165
STARLINK-35810          
1 66575U 25268U   25343.58335648 -.00005229  00000+0 -83395-4 0  9992
2 66575  43.0005 139.5725 0002020 268.5637 224.3469 15.50563950  4166
STARLINK-35814          
1 66576U 25268V   25343.58335648 -.00065427  00000+0 -11183-2 0  9993
2 66576  43.0006 139.5680 0001988 265.5517 229.2746 15.50588071  4167
STARLINK-35815          
1 66577U 25268W   25343.58335648 -.00136193  00000+0 -23514-2 0  9994
2 66577  43.0006 139.5629 0001902 267.7625 228.9617 15.50634582  4163
STARLINK-35743          
1 66578U 25268X   25343.58335648 -.00136011  00000+0 -23482-2 0  9998
2 66578  43.0007 139.5579 0001897 270.3580 228.2835 15.50634502  4169
